{"type": "FeatureCollection", "features": [ {"type": "Feature", "properties": {"norad_id": 66570, "name": "STARLINK-35834", "group": "last-30-days", "lat": -39.80662858608758, "lon": 16.458498026926563, "alt_km": 418.4816093980062, "timestamp": "2025-12-19T18:58:40.325764+00:00", "meta": {"OBJECT_NAME": "STARLINK-35834", "OBJECT_ID": "2025-268P", "EPOCH": "2025-12-19T06:54:40.682304", "MEAN_MOTION": 15.50626441, "ECCENTRICITY": 8.154e-05, "INCLINATION": 42.9944, "RA_OF_ASC_NODE": 82.8435, "ARG_OF_PERICENTER": 129.3253, "MEAN_ANOMALY": 230.768, "EPHEMERIS_TYPE": 0, "CLASSIFICATION_TYPE": "U", "NORAD_CAT_ID": 66570, "ELEMENT_SET_NO": 999, "REV_AT_EPOCH": 564, "BSTAR": 0.00087255303, "MEAN_MOTION_DOT": 0.00051269, "MEAN_MOTION_DDOT": 0}, "tle": {"line1": "1 66570U 25268P   25353.28797086  .00051269  00000+0  87255-3 0  9994", "line2": "2 66570  42.9944  82.8435 0000815 129.3253 230.7680 15.50626441  5642"}}, "geometry": {"type": "Point", "coordinates": [16.458498026926563, -39.80662858608758]}}, {"type": "Feature", "properties": {"norad_id": 66571, "name": "STARLINK-35836", "group": "last-30-days", "lat": -39.0966048979252, "lon": 19.20957773264162, "alt_km": 416.1677313047021, "timestamp": "2025-12-19T18:58:40.325775+00:00", "meta": {"OBJECT_NAME": "STARLINK-35836", "OBJECT_ID": "2025-268Q", "EPOCH": "2025-12-18T15:26:35.940192", "MEAN_MOTION": 15.50617187, "ECCENTRICITY": 0.00024915, "INCLINATION": 43.003, "RA_OF_ASC_NODE": 86.6048, "ARG_OF_PERICENTER": 261.4682, "MEAN_ANOMALY": 98.5896, "EPHEMERIS_TYPE": 0, "CLASSIFICATION_TYPE": "U", "NORAD_CAT_ID": 66571, "ELEMENT_SET_NO": 999, "REV_AT_EPOCH": 554, "BSTAR": 0.0010497199, "MEAN_MOTION_DOT": 0.00061816, "MEAN_MOTION_DDOT": 0}, "tle": {"line1": "1 66571U 25268Q   25352.64347153  .00061816  00000+0  10497-2 0  9992", "line2": "2 66571  43.0030  86.6048 0002491 261.4682  98.5896 15.50617187  5544"}}, "geometry": {"type": "Point", "coordinates": [19.20957773264162, -39.0966048979252]}}, {"type": "Feature", "properties": {"norad_id": 66572, "name": "STARLINK-35870", "group": "last-30-days", "lat": -38.42526828357953, "lon": 21.526428169077693, "alt_km": 416.5750697141275, "timestamp": "2025-12-19T18:58:40.325788+00:00", "meta": {"OBJECT_NAME": "STARLINK-35870", "OBJECT_ID": "2025-268R", "EPOCH": "2025-12-18T15:26:06.608256", "MEAN_MOTION": 15.50618966, "ECCENTRICITY": 0.00017111, "INCLINATION": 42.998, "RA_OF_ASC_NODE": 86.605, "ARG_OF_PERICENTER": 265.1902, "MEAN_ANOMALY": 94.8763, "EPHEMERIS_TYPE": 0, "CLASSIFICATION_TYPE": "U", "NORAD_CAT_ID": 66572, "ELEMENT_SET_NO": 999, "REV_AT_EPOCH": 554, "BSTAR": 0.0011218893, "MEAN_MOTION_DOT": 0.00066127, "MEAN_MOTION_DDOT": 0}, "tle": {"line1": "1 66572U 25268R   25352.64313204  .00066127  00000+0  11219-2 0  9996", "line2": "2 66572  42.9980  86.6050 0001711 265.1902  94.8763 15.50618966  5548"}}, "geometry": {"type": "Point", "coordinates": [21.526428169077693, -38.42526828357953]}}, {"type": "Feature", "properties": {"norad_id": 66573, "name": "STARLINK-35650", "group": "last-30-days", "lat": -37.87234122471532, "lon": 23.319037213641977, "alt_km": 416.9047992351234, "timestamp": "2025-12-19T18:58:40.325798+00:00", "meta": {"OBJECT_NAME": "STARLINK-35650", "OBJECT_ID": "2025-268S", "EPOCH": "2025-12-19T06:53:11.809536", "MEAN_MOTION": 15.50608336, "ECCENTRICITY": 0.00015964, "INCLINATION": 43.0012, "RA_OF_ASC_NODE": 82.8355, "ARG_OF_PERICENTER": 272.2669, "MEAN_ANOMALY": 87.8009, "EPHEMERIS_TYPE": 0, "CLASSIFICATION_TYPE": "U", "NORAD_CAT_ID": 66573, "ELEMENT_SET_NO": 999, "REV_AT_EPOCH": 564, "BSTAR": 0.0010075314, "MEAN_MOTION_DOT": 0.00059277, "MEAN_MOTION_DDOT": 0}, "tle": {"line1": "1 66573U 25268S   25353.28694224  .00059277  00000+0  10075-2 0  9999", "line2": "2 66573  43.0012  82.8355 0001596 272.2669  87.8009 15.50608336  5649"}}, "geometry": {"type": "Point", "coordinates": [23.319037213641977, -37.87234122471532]}}, {"type": "Feature", "properties": {"norad_id": 66574, "name": "STARLINK-35812", "group": "last-30-days", "lat": -36.98613355686203, "lon": 25.94964434124209, "alt_km": 416.53410708051524, "timestamp": "2025-12-19T18:58:40.325810+00:00", "meta": {"OBJECT_NAME": "STARLINK-35812", "OBJECT_ID": "2025-268T", "EPOCH": "2025-12-19T06:52:40.530144", "MEAN_MOTION": 15.50730062, "ECCENTRICITY": 0.00015817, "INCLINATION": 42.9981, "RA_OF_ASC_NODE": 82.8317, "ARG_OF_PERICENTER": 261.578, "MEAN_ANOMALY": 98.4901, "EPHEMERIS_TYPE": 0, "CLASSIFICATION_TYPE": "U", "NORAD_CAT_ID": 66574, "ELEMENT_SET_NO": 999, "REV_AT_EPOCH": 564, "BSTAR": 0.0015164365, "MEAN_MOTION_DOT": 0.00090136, "MEAN_MOTION_DDOT": 0}, "tle": {"line1": "1 66574U 25268T   25353.28658021  .00090136  00000+0  15164-2 0  9998", "line2": "2 66574  42.9981  82.8317 0001581 261.5780  98.4901 15.50730062  5641"}}, "geometry": {"type": "Point", "coordinates": [25.94964434124209, -36.98613355686203]}}, {"type": "Feature", "properties": {"norad_id": 66575, "name": "STARLINK-35810", "group": "last-30-days", "lat": -36.34216197789492, "lon": 27.73798753667344, "alt_km": 416.99436184722526, "timestamp": "2025-12-19T18:58:40.325820+00:00", "meta": {"OBJECT_NAME": "STARLINK-35810", "OBJECT_ID": "2025-268U", "EPOCH": "2025-12-19T06:52:12.470016", "MEAN_MOTION": 15.50612931, "ECCENTRICITY": 0.00014691, "INCLINATION": 43.0005, "RA_OF_ASC_NODE": 82.8286, "ARG_OF_PERICENTER": 262.253, "MEAN_ANOMALY": 97.8163, "EPHEMERIS_TYPE": 0, "CLASSIFICATION_TYPE": "U", "NORAD_CAT_ID": 66575, "ELEMENT_SET_NO": 999, "REV_AT_EPOCH": 564, "BSTAR": 0.0010664338, "MEAN_MOTION_DOT": 0.000628, "MEAN_MOTION_DDOT": 0}, "tle": {"line1": "1 66575U 25268U   25353.28625544  .00062800  00000+0  10664-2 0  9990", "line2": "2 66575  43.0005  82.8286 0001469 262.2530  97.8163 15.50612931  5649"}}, "geometry": {"type": "Point", "coordinates": [27.73798753667344, -36.34216197789492]}}, {"type": "Feature", "properties": {"norad_id": 66576, "name": "STARLINK-35814", "group": "last-30-days", "lat": -35.197406586885, "lon": 30.67166264678337, "alt_km": 416.72221777955383, "timestamp": "2025-12-19T18:58:40.325831+00:00", "meta": {"OBJECT_NAME": "STARLINK-35814", "OBJECT_ID": "2025-268V", "EPOCH": "2025-12-18T13:51:22.756608", "MEAN_MOTION": 15.50643987, "ECCENTRICITY": 7.852e-05, "INCLINATION": 42.9999, "RA_OF_ASC_NODE": 86.9684, "ARG_OF_PERICENTER": 254.7865, "MEAN_ANOMALY": 105.2909, "EPHEMERIS_TYPE": 0, "CLASSIFICATION_TYPE": "U", "NORAD_CAT_ID": 66576, "ELEMENT_SET_NO": 999, "REV_AT_EPOCH": 553, "BSTAR": 0.0017580641, "MEAN_MOTION_DOT": 0.00104423, "MEAN_MOTION_DDOT": 0}, "tle": {"line1": "1 66576U 25268V   25352.57734672  .00104423  00000+0  17581-2 0  9998", "line2": "2 66576  42.9999  86.9684 0000785 254.7865 105.2909 15.50643987  5539"}}, "geometry": {"type": "Point", "coordinates": [30.67166264678337, -35.197406586885]}}, {"type": "Feature", "properties": {"norad_id": 66577, "name": "STARLINK-35815", "group": "last-30-days", "lat": -34.41744332611696, "lon": 32.52635132232474, "alt_km": 417.40778281192524, "timestamp": "2025-12-19T18:58:40.325843+00:00", "meta": {"OBJECT_NAME": "STARLINK-35815", "OBJECT_ID": "2025-268W", "EPOCH": "2025-12-18T13:50:52.755072", "MEAN_MOTION": 15.50637566, "ECCENTRICITY": 8.26e-05, "INCLINATION": 42.9975, "RA_OF_ASC_NODE": 86.9649, "ARG_OF_PERICENTER": 201.5718, "MEAN_ANOMALY": 158.5107, "EPHEMERIS_TYPE": 0, "CLASSIFICATION_TYPE": "U", "NORAD_CAT_ID": 66577, "ELEMENT_SET_NO": 999, "REV_AT_EPOCH": 553, "BSTAR": 0.0011034269, "MEAN_MOTION_DOT": 0.00065066, "MEAN_MOTION_DDOT": 0}, "tle": {"line1": "1 66577U 25268W   25352.57699948  .00065066  00000+0  11034-2 0  9991", "line2": "2 66577  42.9975  86.9649 0000826 201.5718 158.5107 15.50637566  5535"}}, "geometry": {"type": "Point", "coordinates": [32.52635132232474, -34.41744332611696]}}, {"type": "Feature", "properties": {"norad_id": 66578, "name": "STARLINK-35743", "group": "last-30-days", "lat": -33.7632095161399, "lon": 34.01903547219319, "alt_km": 416.49438909003857, "timestamp": "2025-12-19T18:58:40.325853+00:00", "meta": {"OBJECT_NAME": "STARLINK-35743", "OBJECT_ID": "2025-268X", "EPOCH": "2025-12-19T06:50:43.672416", "MEAN_MOTION": 15.50625704, "ECCENTRICITY": 0.00017015, "INCLINATION": 42.9983, "RA_OF_ASC_NODE": 82.8212, "ARG_OF_PERICENTER": 290.053, "MEAN_ANOMALY": 70.0147, "EPHEMERIS_TYPE": 0, "CLASSIFICATION_TYPE": "U", "NORAD_CAT_ID": 66578, "ELEMENT_SET_NO": 999, "REV_AT_EPOCH": 564, "BSTAR": 0.0011962099, "MEAN_MOTION_DOT": 0.00070588, "MEAN_MOTION_DDOT": 0}, "tle": {"line1": "1 66578U 25268X   25353.28522769  .00070588  00000+0  11962-2 0  9992", "line2": "2 66578  42.9983  82.8212 0001701 290.0530  70.0147 15.50625704  5649"}}, "geometry": {"type": "Point", "coordinates": [34.01903547219319, -33.7632095161399]}}, {"type": "Feature", "properties": {"norad_id": 66579, "name": "STARLINK-35868", "group": "last-30-days", "lat": -32.835021792557335, "lon": 36.032222813282274, "alt_km": 416.5377475295427, "timestamp": "2025-12-19T18:58:40.325863+00:00", "meta": {"OBJECT_NAME": "STARLINK-35868", "OBJECT_ID": "2025-268Y", "EPOCH": "2025-12-19T06:50:13.889472", "MEAN_MOTION": 15.50618793, "ECCENTRICITY": 0.00019888, "INCLINATION": 43.0023, "RA_OF_ASC_NODE": 82.8174, "ARG_OF_PERICENTER": 263.3632, "MEAN_ANOMALY": 96.7002, "EPHEMERIS_TYPE": 0, "CLASSIFICATION_TYPE": "U", "NORAD_CAT_ID": 66579, "ELEMENT_SET_NO": 999, "REV_AT_EPOCH": 564, "BSTAR": 0.0013518157, "MEAN_MOTION_DOT": 0.00079891, "MEAN_MOTION_DDOT": 0}, "tle": {"line1": "1 66579U 25268Y   25353.28488298  .00079891  00000+0  13518-2 0  9996", "line2": "2 66579  43.0023  82.8174 0001988 263.3632  96.7002 15.50618793  5642"}}, "geometry": {"type": "Point", "coordinates": [36.032222813282274, -32.835021792557335]}}]}